[{"OBJECT_NAME":"STARLINK-3679","OBJECT_ID":"2022-025T","EPOCH":"2026-03-09T07:06:27.034272","MEAN_MOTION":15.06397139,"ECCENTRICITY":0.00012849,"INCLINATION":53.0552,"RA_OF_ASC_NODE":32.5908,"ARG_OF_PERICENTER":96.4999,"MEAN_ANOMALY":263.6136,"EPHEMERIS_TYPE":0,"CLASSIFICATION_TYPE":"U","NORAD_CAT_ID":51973,"ELEMENT_SET_NO":999,"REV_AT_EPOCH":22086,"BSTAR":1.45703e-5,"MEAN_MOTION_DOT":-6.4e-7,"MEAN_MOTION_DDOT":0},{"OBJECT_NAME":"FENGYUN 1C DEB","OBJECT_ID":"1999-025EMJ","EPOCH":"2026-03-09T03:39:09.279936","MEAN_MOTION":15.01174269,"ECCENTRICITY":0.00472088,"INCLINATION":98.7318,"RA_OF_ASC_NODE":38.98,"ARG_OF_PERICENTER":180.721,"MEAN_ANOMALY":242.109,"EPHEMERIS_TYPE":0,"CLASSIFICATION_TYPE":"U","NORAD_CAT_ID":37717,"ELEMENT_SET_NO":999,"REV_AT_EPOCH":90691,"BSTAR":0.0034859906,"MEAN_MOTION_DOT":0.00045969,"MEAN_MOTION_DDOT":0}]
